OBJECT_NAME,OBJECT_ID,EPOCH,MEAN_MOTION,ECCENTRICITY,INCLINATION,RA_OF_ASC_NODE,ARG_OF_PERICENTER,MEAN_ANOMALY,EPHEMERIS_TYPE,CLASSIFICATION_TYPE,NORAD_CAT_ID,ELEMENT_SET_NO,REV_AT_EPOCH,BSTAR,MEAN_MOTION_DOT,MEAN_MOTION_DDOT
SPACEMOBILE-004,2024-163E,2026-07-20T06:54:23.133600,15.20670628,.00054059,52.9728,156.7022,240.1803,119.8654,0,U,61049,999,10280,.54286911E-3,.11771E-3,0
CZ-8A R/B,2025-231K,2026-07-20T09:10:27.929280,14.30163075,.01165379,50.0032,258.0905,340.8790,18.7770,0,U,66004,999,3969,.23311771E-4,-.1E-5,0
SZ-21 MODULE,2025-246C,2026-07-19T22:32:34.099584,15.79140397,.0009191,41.4720,102.9079,250.3291,109.6563,0,U,66515,999,3891,.18664827E-3,.34255E-3,0
SPACEMOBILE-006,2025-309A,2026-07-20T08:15:28.381536,15.18671763,.00095935,52.9942,179.7458,233.1495,126.8619,0,U,67232,999,3163,.10373706E-3,.1858E-4,0
SPACEMOBILE-008,2026-139A,2026-07-20T04:10:16.862592,15.12806988,.0005247,52.9951,112.8041,68.3967,291.7583,0,U,69589,999,497,.36450013E-4,.346E-5,0
SPACEMOBILE-009,2026-139B,2026-07-20T04:13:36.679872,15.12700615,.00055971,52.9943,112.8125,65.1847,294.9726,0,U,69590,999,497,.34749511E-4,.314E-5,0
SPACEMOBILE-010,2026-139C,2026-07-20T10:39:28.228608,15.12541945,.00055238,52.9948,111.6389,57.7793,302.3732,0,U,69591,999,502,.744967E-4,.1013E-4,0
